NORAD_CAT_ID,OBJECT_NAME,OBJECT_TYPE,EPOCH,MEAN_MOTION,ECCENTRICITY,INCLINATION,RA_OF_ASC_NODE,ARG_OF_PERICENTER,MEAN_ANOMALY,BSTAR,MEAN_MOTION_DOT,MEAN_MOTION_DDOT,TLE_LINE0,TLE_LINE1,TLE_LINE2,SEMIMAJOR_AXIS,PERIOD,APOGEE,PERIGEE,DECAYED
54199.0,STARLINK-5244,PAYLOAD,2024-04-29 19:49:41,15.08849284,0.0001391,53.2143,161.5791,102.7616,257.3532,0.00069233,0.0001075,0.0,0 STARLINK-5244,1 54199U 22141AU  24120.82617211  .00010750  00000-0  69233-3 0  9994,2 54199  53.2143 161.5791 0001391 102.7616 257.3532 15.08849284 83518,6917.852,95.437,540.679,538.755,0.0
54199.0,STARLINK-5244,PAYLOAD,2024-04-30 10:08:09,15.0885336,0.000138,53.2146,158.9024,102.5339,257.5808,0.0004689,7.185e-05,0.0,0 STARLINK-5244,1 54199U 22141AU  24121.42232849  .00007185  00000-0  46890-3 0  9993,2 54199  53.2146 158.9024 0001380 102.5339 257.5808 15.08853360 83831,6917.84,95.437,540.659,538.75,0.0
54199.0,STARLINK-5244,PAYLOAD,2024-04-30 19:40:28,15.08846648,0.0001338,53.2142,157.1176,98.5239,261.5905,0.00020615,2.995e-05,0.0,0 STARLINK-5244,1 54199U 22141AU  24121.81976865  .00002995  00000-0  20615-3 0  9990,2 54199  53.2142 157.1176 0001338  98.5239 261.5905 15.08846648 83892,6917.86,95.437,540.651,538.799,0.0
54199.0,STARLINK-5244,PAYLOAD,2024-05-01 08:23:33,15.08844396,0.0001416,53.2146,154.7383,97.8656,262.2497,0.00016538,2.345e-05,0.0,0 STARLINK-5244,1 54199U 22141AU  24122.34968944  .00002345  00000-0  16538-3 0  9996,2 54199  53.2146 154.7383 0001416  97.8656 262.2497 15.08844396 83747,6917.867,95.437,540.712,538.752,0.0
54199.0,STARLINK-5244,PAYLOAD,2024-05-01 19:31:15,15.08844421,0.0001415,53.215,152.6562,97.6919,262.4233,0.00015404,2.165e-05,0.0,0 STARLINK-5244,1 54199U 22141AU  24122.81336927  .00002165  00000-0  15404-3 0  9999,2 54199  53.2150 152.6562 0001415  97.6919 262.4233 15.08844421 84040,6917.867,95.437,540.711,538.753,0.0
54199.0,STARLINK-5244,PAYLOAD,2024-05-02 11:25:06,15.08849034,0.0001404,53.2154,149.6832,95.1033,265.0119,0.00015309,2.15e-05,0.0,0 STARLINK-5244,1 54199U 22141AU  24123.47576595  .00002150  00000-0  15309-3 0  9997,2 54199  53.2154 149.6832 0001404  95.1033 265.0119 15.08849034 83910,6917.853,95.437,540.689,538.747,0.0
54199.0,STARLINK-5244,PAYLOAD,2024-05-03 04:54:20,15.08846044,0.00014,53.2146,146.4121,94.9942,265.121,0.00015211,2.134e-05,0.0,0 STARLINK-5244,1 54199U 22141AU  24124.20440555  .00002134  00000-0  15211-3 0  9999,2 54199  53.2146 146.4121 0001400  94.9942 265.1210 15.08846044 84258,6917.862,95.437,540.695,538.758,0.0
54199.0,STARLINK-5244,PAYLOAD,2024-05-03 08:05:06,15.08847932,0.0001414,53.2148,145.8173,95.4606,264.6547,0.00016848,2.395e-05,0.0,0 STARLINK-5244,1 54199U 22141AU  24124.33688407  .00002395  00000-0  16848-3 0  9999,2 54199  53.2148 145.8173 0001414  95.4606 264.6547 15.08847932 84049,6917.856,95.437,540.699,538.743,0.0
54199.0,STARLINK-5244,PAYLOAD,2024-05-04 04:45:08,15.08835711,0.0001663,53.2143,141.9513,111.5616,248.5553,-4.7088e-05,-1.037e-05,0.0,0 STARLINK-5244,1 54199U 22141AU  24125.19801048 -.00001037  00000-0 -47088-4 0  9997,2 54199  53.2143 141.9513 0001663 111.5616 248.5553 15.08835711 84406,6917.893,95.438,540.909,538.608,0.0
54199.0,STARLINK-5244,PAYLOAD,2024-05-04 07:55:54,15.08832943,0.00013,53.2152,141.3562,89.4519,270.6622,-3.441e-05,-8.35e-06,0.0,0 STARLINK-5244,1 54199U 22141AU  24125.33049698 -.00000835  00000-0 -34410-4 0  9998,2 54199  53.2152 141.3562 0001300  89.4519 270.6622 15.08832943 84426,6917.902,95.438,540.666,538.868,0.0
54199.0,STARLINK-5244,PAYLOAD,2024-05-05 10:57:28,15.08834064,0.0001369,53.2152,136.3022,84.9059,275.2089,8.3095e-06,-1.56e-06,0.0,0 STARLINK-5244,1 54199U 22141AU  24126.45658106 -.00000156  00000-0  83095-5 0  9991,2 54199  53.2152 136.3022 0001369  84.9059 275.2089 15.08834064 84597,6917.899,95.438,540.711,538.816,0.0
54199.0,STARLINK-5244,PAYLOAD,2024-05-05 17:19:00,15.08839711,0.0001277,53.2155,135.1129,86.553,273.5609,-1.0691e-05,-4.58e-06,0.0,0 STARLINK-5244,1 54199U 22141AU  24126.72153862 -.00000458  00000-0 -10691-4 0  9997,2 54199  53.2155 135.1129 0001277  86.5530 273.5609 15.08839711 84408,6917.881,95.438,540.63,538.863,0.0
54199.0,STARLINK-5244,PAYLOAD,2024-05-06 10:48:15,15.08837406,0.0001327,53.2156,131.8416,83.967,276.1473,0.0001971,2.85e-05,0.0,0 STARLINK-5244,1 54199U 22141AU  24127.45018102  .00002850  00000-0  19710-3 0  9991,2 54199  53.2156 131.8416 0001327  83.9670 276.1473 15.08837406 84512,6917.888,95.438,540.671,538.835,0.0
54199.0,STARLINK-5244,PAYLOAD,2024-05-06 17:09:47,15.08842796,0.0001355,53.216,130.6523,84.903,275.2117,0.00023493,3.453e-05,0.0,0 STARLINK-5244,1 54199U 22141AU  24127.71513878  .00003453  00000-0  23493-3 0  9993,2 54199  53.2160 130.6523 0001355  84.9030 275.2117 15.08842796 84787,6917.872,95.437,540.674,538.799,0.0
54199.0,STARLINK-5244,PAYLOAD,2024-05-07 09:03:38,15.08857475,0.0001363,53.2146,127.6784,85.1545,274.9602,0.00034557,5.219e-05,0.0,0 STARLINK-5244,1 54199U 22141AU  24128.37753183  .00005219  00000-0  34557-3 0  9996,2 54199  53.2146 127.6784 0001363  85.1545 274.9602 15.08857475 84885,6917.827,95.436,540.635,538.749,0.0
54199.0,STARLINK-5244,PAYLOAD,2024-05-07 17:00:34,15.08850521,0.0001326,53.214,126.1915,87.1174,272.997,0.00017064,2.43e-05,0.0,0 STARLINK-5244,1 54199U 22141AU  24128.70873250  .00002430  00000-0  17064-3 0  9997,2 54199  53.2140 126.1915 0001326  87.1174 272.9970 15.08850521 84935,6917.848,95.437,540.631,538.796,0.0
54199.0,STARLINK-5244,PAYLOAD,2024-05-08 05:43:39,15.08845841,0.0001367,53.2145,123.8125,87.1512,272.9636,8.0269e-05,9.9e-06,0.0,0 STARLINK-5244,1 54199U 22141AU  24129.23865393  .00000990  00000-0  80269-4 0  9992,2 54199  53.2145 123.8125 0001367  87.1512 272.9636 15.08845841 85016,6917.863,95.437,540.673,538.782,0.0
54199.0,STARLINK-5244,PAYLOAD,2024-05-08 08:54:25,15.08847925,0.0001385,53.2148,123.2177,86.679,273.436,7.4435e-05,8.97e-06,0.0,0 STARLINK-5244,1 54199U 22141AU  24129.37113216  .00000897  00000-0  74435-4 0  9991,2 54199  53.2148 123.2177 0001385  86.6790 273.4360 15.08847925 84803,6917.856,95.437,540.679,538.763,0.0
54199.0,STARLINK-5244,PAYLOAD,2024-05-08 16:51:21,15.08845329,0.0001384,53.2148,121.7307,86.4105,273.7045,3.07e-05,2.01e-06,0.0,0 STARLINK-5244,1 54199U 22141AU  24129.70233224  .00000201  00000-0  30700-4 0  9996,2 54199  53.2148 121.7307 0001384  86.4105 273.7045 15.08845329 84852,6917.864,95.437,540.687,538.772,0.0
54199.0,STARLINK-5244,PAYLOAD,2024-05-09 08:45:12,15.08851742,0.0001385,53.2159,118.7563,89.6835,270.4316,4.5264e-05,4.33e-06,0.0,0 STARLINK-5244,1 54199U 22141AU  24130.36472711  .00000433  00000-0  45264-4 0  9994,2 54199  53.2159 118.7563 0001385  89.6835 270.4316 15.08851742 85188,6917.844,95.437,540.668,538.751,0.0
54199.0,STARLINK-5244,PAYLOAD,2024-05-09 16:42:08,15.08847694,0.0001386,53.2163,117.269,90.9713,269.1438,4.0824e-05,3.62e-06,0.0,0 STARLINK-5244,1 54199U 22141AU  24130.69592827  .00000362  00000-0  40824-4 0  9999,2 54199  53.2163 117.2690 0001386  90.9713 269.1438 15.08847694 85001,6917.857,95.437,540.681,538.763,0.0
54199.0,STARLINK-5244,PAYLOAD,2024-05-10 03:49:50,15.0884334,0.00014,53.2161,115.1878,90.7661,269.3491,8.1688e-05,1.012e-05,0.0,0 STARLINK-5244,1 54199U 22141AU  24131.15961075  .00001012  00000-0  81688-4 0  9992,2 54199  53.2161 115.1878 0001400  90.7661 269.3491 15.08843340 85309,6917.87,95.437,540.704,538.767,0.0
54199.0,STARLINK-5244,PAYLOAD,2024-05-10 05:25:13,15.08844213,0.0001408,53.2161,114.8902,91.6964,268.4189,7.9622e-05,9.8e-06,0.0,0 STARLINK-5244,1 54199U 22141AU  24131.22584993  .00000980  00000-0  79622-4 0  9998,2 54199  53.2161 114.8902 0001408  91.6964 268.4189 15.08844213 85086,6917.868,95.437,540.707,538.758,0.0
54199.0,STARLINK-5244,PAYLOAD,2024-05-10 22:54:28,15.0883973,0.0001456,53.2153,111.6196,89.7844,270.3315,2.8594e-05,1.67e-06,0.0,0 STARLINK-5244,1 54199U 22141AU  24131.95449476  .00000167  00000-0  28594-4 0  9993,2 54199  53.2153 111.6196 0001456  89.7844 270.3315 15.08839730 85198,6917.881,95.438,540.753,538.739,0.0
54199.0,STARLINK-5244,PAYLOAD,2024-05-11 08:26:46,15.08869236,0.0001869,53.217,109.8371,111.3487,248.7704,0.00051709,7.958e-05,0.0,0 STARLINK-5244,1 54199U 22141AU  24132.35192395  .00007958  00000-0  51709-3 0  9991,2 54199  53.2170 109.8371 0001869 111.3487 248.7704 15.08869236 85481,6917.791,95.436,540.949,538.363,0.0
54199.0,STARLINK-5244,PAYLOAD,2024-05-12 05:06:48,15.08795604,0.0001554,53.2163,105.9715,71.1207,288.9953,-0.00090651,-0.00014669,0.0,0 STARLINK-5244,1 54199U 22141AU  24133.21306223 -.00014669  00000-0 -90651-3 0  9992,2 54199  53.2163 105.9715 0001554  71.1207 288.9953 15.08795604 85610,6918.016,95.44,540.956,538.806,0.0
54199.0,STARLINK-5244,PAYLOAD,2024-05-12 14:39:08,15.08786996,0.0001563,53.2169,104.1871,76.9436,283.173,-0.00082647,-0.00013398,0.0,0 STARLINK-5244,1 54199U 22141AU  24133.61051576 -.00013398  00000-0 -82647-3 0  9998,2 54199  53.2169 104.1871 0001563  76.9436 283.1730 15.08786996 85442,6918.042,95.441,540.989,538.826,0.0
54199.0,STARLINK-5244,PAYLOAD,2024-05-13 04:57:36,15.08835224,0.0001448,53.2166,101.5061,73.0735,287.0416,0.00032077,4.82e-05,0.0,0 STARLINK-5244,1 54199U 22141AU  24134.20667543  .00004820  00000-0  32077-3 0  9991,2 54199  53.2166 101.5061 0001448  73.0735 287.0416 15.08835224 85761,6917.895,95.438,540.762,538.758,0.0
54199.0,STARLINK-5244,PAYLOAD,2024-05-13 08:08:23,15.08830656,0.000159,53.2176,100.9161,90.8765,269.2409,0.00031368,4.706e-05,0.0,0 STARLINK-5244,1 54199U 22141AU  24134.33916014  .00004706  00000-0  31368-3 0  9990,2 54199  53.2176 100.9161 0001590  90.8765 269.2409 15.08830656 85559,6917.909,95.438,540.874,538.674,0.0
54199.0,STARLINK-5244,PAYLOAD,2024-05-13 14:29:55,15.08834585,0.0001497,53.2173,99.7268,78.0033,282.1127,0.00039301,5.971e-05,0.0,0 STARLINK-5244,1 54199U 22141AU  24134.60412026  .00005971  00000-0  39301-3 0  9994,2 54199  53.2173  99.7268 0001497  78.0033 282.1127 15.08834585 85591,6917.897,95.438,540.798,538.726,0.0
